TWILIGHT AR             
1 67402U 26004AR  26022.50015131  .00004717  00000+0  24369-3 0  9994
2 67402  97.4543  23.6904 0004843 101.2646 258.9132 15.16761705  1646
SHIJIAN-29B (SJ-29B)    
1 67403U 25315C   26022.83913992 -.00000052  00000+0  00000+0 0  9998
2 67403   3.0284  98.9518 0001043 306.3909  91.9982  1.00268617   231
STARLINK-36484          
1 67404U 26005A   26020.83335648 -.01385048  55019-3 -39585-2 0  9990
2 67404  43.0011 156.5855 0001768 283.2631  23.0433 15.92369012  2447
STARLINK-36452          
1 67405U 26005B   26020.83335648 -.01396800  55907-3 -39815-2 0  9991
2 67405  43.0012 156.5805 0001803 283.7617  24.5468 15.92421826  2449
STARLINK-36409          
1 67406U 26005C   26021.65764301  .00858656  00000+0  24824-2 0  9998
2 67406  42.9889 151.4583 0005399 231.2458 128.7935 15.90202176  2621
STARLINK-36510          
1 67407U 26005D   26020.83335648 -.01407695  56762-3 -39923-2 0  9998
2 67407  43.0012 156.5719 0001881 283.4919  28.2521 15.92519851  2495
STARLINK-36509          
1 67408U 26005E   26020.83335648 -.01415534  57371-3 -40043-2 0  9992
2 67408  43.0013 156.5665 0001765 280.5824  33.1856 15.92570296  2497
STARLINK-36507          
1 67409U 26005F   26020.83335648 -.01435224  58876-3 -40485-2 0  9992
2 67409  43.0013 156.5622 0001764 283.2556  32.1765 15.92627294  2491
STARLINK-36508          
1 67410U 26005G   26020.83335648 -.01443791  59552-3 -40618-2 0  9992
2 67410  43.0014 156.5571 0001851 286.0954  31.3754 15.92679467  2495
STARLINK-36503          
1 67411U 26005H   26020.83335648 -.01451887  60192-3 -40752-2 0  9999
2 67411  43.0012 156.5533 0001863 280.8409  38.1352 15.92724539  2234
STARLINK-36446          
1 67412U 26005J   26020.83335648 -.01451307  60177-3 -40632-2 0  9997
2 67412  43.0013 156.5487 0001801 287.3435  33.5020 15.92773276  2498
STARLINK-36442          
1 67413U 26005K   26020.83335648 -.01454348  60439-3 -40604-2 0  9996
2 67413  43.0009 156.5432 0001878 281.0876  41.9167 15.92826075  2499
