CCSDS_OMM_VERS = 2.0
CREATION_DATE  = 
ORIGINATOR     = 

OBJECT_NAME    = TWILIGHT AR
OBJECT_ID      = 2026-004AR
CENTER_NAME    = EARTH
REF_FRAME      = TEME
TIME_SYSTEM    = UTC
MEAN_ELEMENT_THEORY = SGP/SGP4

EPOCH          = 2026-01-22T12:00:13.073184
MEAN_MOTION    = 15.16761705
ECCENTRICITY   = .00048434
INCLINATION    = 97.4543
RA_OF_ASC_NODE = 23.6904
ARG_OF_PERICENTER = 101.2646
MEAN_ANOMALY   = 258.9132

EPHEMERIS_TYPE = 0
CLASSIFICATION_TYPE = U
NORAD_CAT_ID   = 67402
ELEMENT_SET_NO = 999
REV_AT_EPOCH   = 164
BSTAR          = .2436896E-3
MEAN_MOTION_DOT = .4717E-4
MEAN_MOTION_DDOT = 0

CCSDS_OMM_VERS = 2.0
CREATION_DATE  = 
ORIGINATOR     = 

OBJECT_NAME    = SHIJIAN-29B (SJ-29B)
OBJECT_ID      = 2025-315C
CENTER_NAME    = EARTH
REF_FRAME      = TEME
TIME_SYSTEM    = UTC
MEAN_ELEMENT_THEORY = SGP/SGP4

EPOCH          = 2026-01-22T20:08:21.689088
MEAN_MOTION    = 1.00268617
ECCENTRICITY   = .0001043
INCLINATION    = 3.0284
RA_OF_ASC_NODE = 98.9518
ARG_OF_PERICENTER = 306.3909
MEAN_ANOMALY   = 91.9982

EPHEMERIS_TYPE = 0
CLASSIFICATION_TYPE = U
NORAD_CAT_ID   = 67403
ELEMENT_SET_NO = 999
REV_AT_EPOCH   = 23
BSTAR          = 0
MEAN_MOTION_DOT = -.52E-6
MEAN_MOTION_DDOT = 0

CCSDS_OMM_VERS = 2.0
CREATION_DATE  = 
ORIGINATOR     = 

OBJECT_NAME    = STARLINK-36484
OBJECT_ID      = 2026-005A
CENTER_NAME    = EARTH
REF_FRAME      = TEME
TIME_SYSTEM    = UTC
MEAN_ELEMENT_THEORY = SGP/SGP4

EPOCH          = 2026-01-20T20:00:01.999872
MEAN_MOTION    = 15.92369012
ECCENTRICITY   = .00017684
INCLINATION    = 43.0011
RA_OF_ASC_NODE = 156.5855
ARG_OF_PERICENTER = 283.2631
MEAN_ANOMALY   = 23.0433

EPHEMERIS_TYPE = 0
CLASSIFICATION_TYPE = U
NORAD_CAT_ID   = 67404
ELEMENT_SET_NO = 999
REV_AT_EPOCH   = 244
BSTAR          = -.39585294E-2
MEAN_MOTION_DOT = -.1385048E-1
MEAN_MOTION_DDOT = .55019377E-3

CCSDS_OMM_VERS = 2.0
CREATION_DATE  = 
ORIGINATOR     = 

OBJECT_NAME    = STARLINK-36452
OBJECT_ID      = 2026-005B
CENTER_NAME    = EARTH
REF_FRAME      = TEME
TIME_SYSTEM    = UTC
MEAN_ELEMENT_THEORY = SGP/SGP4

EPOCH          = 2026-01-20T20:00:01.999872
MEAN_MOTION    = 15.92421826
ECCENTRICITY   = .00018033
INCLINATION    = 43.0012
RA_OF_ASC_NODE = 156.5805
ARG_OF_PERICENTER = 283.7617
MEAN_ANOMALY   = 24.5468

EPHEMERIS_TYPE = 0
CLASSIFICATION_TYPE = U
NORAD_CAT_ID   = 67405
ELEMENT_SET_NO = 999
REV_AT_EPOCH   = 244
BSTAR          = -.39814727E-2
MEAN_MOTION_DOT = -.13968E-1
MEAN_MOTION_DDOT = .5590652E-3

CCSDS_OMM_VERS = 2.0
CREATION_DATE  = 
ORIGINATOR     = 

OBJECT_NAME    = STARLINK-36409
OBJECT_ID      = 2026-005C
CENTER_NAME    = EARTH
REF_FRAME      = TEME
TIME_SYSTEM    = UTC
MEAN_ELEMENT_THEORY = SGP/SGP4

EPOCH          = 2026-01-21T15:47:00.356064
MEAN_MOTION    = 15.90202176
ECCENTRICITY   = .0005399
INCLINATION    = 42.9889
RA_OF_ASC_NODE = 151.4583
ARG_OF_PERICENTER = 231.2458
MEAN_ANOMALY   = 128.7935

EPHEMERIS_TYPE = 0
CLASSIFICATION_TYPE = U
NORAD_CAT_ID   = 67406
ELEMENT_SET_NO = 999
REV_AT_EPOCH   = 262
BSTAR          = .24824041E-2
MEAN_MOTION_DOT = .858656E-2
MEAN_MOTION_DDOT = 0

CCSDS_OMM_VERS = 2.0
CREATION_DATE  = 
ORIGINATOR     = 

OBJECT_NAME    = STARLINK-36510
OBJECT_ID      = 2026-005D
CENTER_NAME    = EARTH
REF_FRAME      = TEME
TIME_SYSTEM    = UTC
MEAN_ELEMENT_THEORY = SGP/SGP4

EPOCH          = 2026-01-20T20:00:01.999872
MEAN_MOTION    = 15.92519851
ECCENTRICITY   = .00018818
INCLINATION    = 43.0012
RA_OF_ASC_NODE = 156.5719
ARG_OF_PERICENTER = 283.4919
MEAN_ANOMALY   = 28.2521

EPHEMERIS_TYPE = 0
CLASSIFICATION_TYPE = U
NORAD_CAT_ID   = 67407
ELEMENT_SET_NO = 999
REV_AT_EPOCH   = 249
BSTAR          = -.39922967E-2
MEAN_MOTION_DOT = -.1407695E-1
MEAN_MOTION_DDOT = .56762277E-3

CCSDS_OMM_VERS = 2.0
CREATION_DATE  = 
ORIGINATOR     = 

OBJECT_NAME    = STARLINK-36509
OBJECT_ID      = 2026-005E
CENTER_NAME    = EARTH
REF_FRAME      = TEME
TIME_SYSTEM    = UTC
MEAN_ELEMENT_THEORY = SGP/SGP4

EPOCH          = 2026-01-20T20:00:01.999872
MEAN_MOTION    = 15.92570296
ECCENTRICITY   = .00017656
INCLINATION    = 43.0013
RA_OF_ASC_NODE = 156.5665
ARG_OF_PERICENTER = 280.5824
MEAN_ANOMALY   = 33.1856

EPHEMERIS_TYPE = 0
CLASSIFICATION_TYPE = U
NORAD_CAT_ID   = 67408
ELEMENT_SET_NO = 999
REV_AT_EPOCH   = 249
BSTAR          = -.40042775E-2
MEAN_MOTION_DOT = -.1415534E-1
MEAN_MOTION_DDOT = .57371247E-3

CCSDS_OMM_VERS = 2.0
CREATION_DATE  = 
ORIGINATOR     = 

OBJECT_NAME    = STARLINK-36507
OBJECT_ID      = 2026-005F
CENTER_NAME    = EARTH
REF_FRAME      = TEME
TIME_SYSTEM    = UTC
MEAN_ELEMENT_THEORY = SGP/SGP4

EPOCH          = 2026-01-20T20:00:01.999872
MEAN_MOTION    = 15.92627294
ECCENTRICITY   = .00017645
INCLINATION    = 43.0013
RA_OF_ASC_NODE = 156.5622
ARG_OF_PERICENTER = 283.2556
MEAN_ANOMALY   = 32.1765

EPHEMERIS_TYPE = 0
CLASSIFICATION_TYPE = U
NORAD_CAT_ID   = 67409
ELEMENT_SET_NO = 999
REV_AT_EPOCH   = 249
BSTAR          = -.40485263E-2
MEAN_MOTION_DOT = -.1435224E-1
MEAN_MOTION_DDOT = .58875547E-3

CCSDS_OMM_VERS = 2.0
CREATION_DATE  = 
ORIGINATOR     = 

OBJECT_NAME    = STARLINK-36508
OBJECT_ID      = 2026-005G
CENTER_NAME    = EARTH
REF_FRAME      = TEME
TIME_SYSTEM    = UTC
MEAN_ELEMENT_THEORY = SGP/SGP4

EPOCH          = 2026-01-20T20:00:01.999872
MEAN_MOTION    = 15.92679467
ECCENTRICITY   = .00018515
INCLINATION    = 43.0014
RA_OF_ASC_NODE = 156.5571
ARG_OF_PERICENTER = 286.0954
MEAN_ANOMALY   = 31.3754

EPHEMERIS_TYPE = 0
CLASSIFICATION_TYPE = U
NORAD_CAT_ID   = 67410
ELEMENT_SET_NO = 999
REV_AT_EPOCH   = 249
BSTAR          = -.40617907E-2
MEAN_MOTION_DOT = -.1443791E-1
MEAN_MOTION_DDOT = .59551911E-3

CCSDS_OMM_VERS = 2.0
CREATION_DATE  = 
ORIGINATOR     = 

OBJECT_NAME    = STARLINK-36503
OBJECT_ID      = 2026-005H
CENTER_NAME    = EARTH
REF_FRAME      = TEME
TIME_SYSTEM    = UTC
MEAN_ELEMENT_THEORY = SGP/SGP4

EPOCH          = 2026-01-20T20:00:01.999872
MEAN_MOTION    = 15.92724539
ECCENTRICITY   = .00018634
INCLINATION    = 43.0012
RA_OF_ASC_NODE = 156.5533
ARG_OF_PERICENTER = 280.8409
MEAN_ANOMALY   = 38.1352

EPHEMERIS_TYPE = 0
CLASSIFICATION_TYPE = U
NORAD_CAT_ID   = 67411
ELEMENT_SET_NO = 999
REV_AT_EPOCH   = 223
BSTAR          = -.40751777E-2
MEAN_MOTION_DOT = -.1451887E-1
MEAN_MOTION_DDOT = .60192333E-3

CCSDS_OMM_VERS = 2.0
CREATION_DATE  = 
ORIGINATOR     = 

OBJECT_NAME    = STARLINK-36446
OBJECT_ID      = 2026-005J
CENTER_NAME    = EARTH
REF_FRAME      = TEME
TIME_SYSTEM    = UTC
MEAN_ELEMENT_THEORY = SGP/SGP4

EPOCH          = 2026-01-20T20:00:01.999872
MEAN_MOTION    = 15.92773276
ECCENTRICITY   = .00018018
INCLINATION    = 43.0013
RA_OF_ASC_NODE = 156.5487
ARG_OF_PERICENTER = 287.3435
MEAN_ANOMALY   = 33.5020

EPHEMERIS_TYPE = 0
CLASSIFICATION_TYPE = U
NORAD_CAT_ID   = 67412
ELEMENT_SET_NO = 999
REV_AT_EPOCH   = 249
BSTAR          = -.40631676E-2
MEAN_MOTION_DOT = -.1451307E-1
MEAN_MOTION_DDOT = .60176751E-3

CCSDS_OMM_VERS = 2.0
CREATION_DATE  = 
ORIGINATOR     = 

OBJECT_NAME    = STARLINK-36442
OBJECT_ID      = 2026-005K
CENTER_NAME    = EARTH
REF_FRAME      = TEME
TIME_SYSTEM    = UTC
MEAN_ELEMENT_THEORY = SGP/SGP4

EPOCH          = 2026-01-20T20:00:01.999872
MEAN_MOTION    = 15.92826075
ECCENTRICITY   = .00018782
INCLINATION    = 43.0009
RA_OF_ASC_NODE = 156.5432
ARG_OF_PERICENTER = 281.0876
MEAN_ANOMALY   = 41.9167

EPHEMERIS_TYPE = 0
CLASSIFICATION_TYPE = U
NORAD_CAT_ID   = 67413
ELEMENT_SET_NO = 999
REV_AT_EPOCH   = 249
BSTAR          = -.40604443E-2
MEAN_MOTION_DOT = -.1454348E-1
MEAN_MOTION_DDOT = .60439408E-3

